{
  "type": "FeatureCollection",
  "features": [
    {
      "type": "Feature",
      "properties": {
        "norad_id": 57400,
        "name": "TIANMU-1 08",
        "group": "weather",
        "lat": 20.705013036932048,
        "lon": -150.97256165719344,
        "alt_km": 478.8841008017598,
        "timestamp": "2025-12-02T08:59:32.362619+00:00",
        "meta_object_name": "TIANMU-1 08",
        "meta_object_id": "2023-101B",
        "meta_epoch": "2025-12-01T21:17:45.525408",
        "meta_mean_motion": 15.27808273,
        "meta_eccentricity": 0.0007427,
        "meta_inclination": 97.2888,
        "meta_ra_of_asc_node": 25.778,
        "meta_arg_of_pericenter": 114.3124,
        "meta_mean_anomaly": 245.8891,
        "meta_ephemeris_type": 0,
        "meta_classification_type": "U",
        "meta_norad_cat_id": 57400,
        "meta_element_set_no": 999,
        "meta_rev_at_epoch": 13149,
        "meta_bstar": 0.00031213,
        "meta_mean_motion_dot": 8.412e-05,
        "meta_mean_motion_ddot": 0,
        "tle_line1": "1 57400U 23101B   25335.88733247  .00008412  00000+0  31213-3 0  9990",
        "tle_line2": "2 57400  97.2888  25.7780 0007427 114.3124 245.8891 15.27808273131493"
      },
      "geometry": {
        "type": "Point",
        "coordinates": [
          -150.97256165719344,
          20.705013036932048
        ]
      }
    },
    {
      "type": "Feature",
      "properties": {
        "norad_id": 57401,
        "name": "TIANMU-1 09",
        "group": "weather",
        "lat": -50.223997434993905,
        "lon": -163.0656421244807,
        "alt_km": 491.4650644093472,
        "timestamp": "2025-12-02T08:59:32.362630+00:00",
        "meta_object_name": "TIANMU-1 09",
        "meta_object_id": "2023-101C",
        "meta_epoch": "2025-12-01T20:58:59.101824",
        "meta_mean_motion": 15.27829153,
        "meta_eccentricity": 0.0006696,
        "meta_inclination": 97.2845,
        "meta_ra_of_asc_node": 25.2846,
        "meta_arg_of_pericenter": 113.5,
        "meta_mean_anomaly": 246.6944,
        "meta_ephemeris_type": 0,
        "meta_classification_type": "U",
        "meta_norad_cat_id": 57401,
        "meta_element_set_no": 999,
        "meta_rev_at_epoch": 13149,
        "meta_bstar": 0.00030891,
        "meta_mean_motion_dot": 8.328e-05,
        "meta_mean_motion_ddot": 0,
        "tle_line1": "1 57401U 23101C   25335.87429516  .00008328  00000+0  30891-3 0  9998",
        "tle_line2": "2 57401  97.2845  25.2846 0006696 113.5000 246.6944 15.27829153131494"
      },
      "geometry": {
        "type": "Point",
        "coordinates": [
          -163.0656421244807,
          -50.223997434993905
        ]
      }
    },
    {
      "type": "Feature",
      "properties": {
        "norad_id": 57402,
        "name": "TIANMU-1 10",
        "group": "weather",
        "lat": 42.29872773738614,
        "lon": 19.920989033385133,
        "alt_km": 476.9559765781223,
        "timestamp": "2025-12-02T08:59:32.362640+00:00",
        "meta_object_name": "TIANMU-1 10",
        "meta_object_id": "2023-101D",
        "meta_epoch": "2025-12-01T20:13:51.309408",
        "meta_mean_motion": 15.27819033,
        "meta_eccentricity": 0.0008431,
        "meta_inclination": 97.2927,
        "meta_ra_of_asc_node": 26.0923,
        "meta_arg_of_pericenter": 114.8462,
        "meta_mean_anomaly": 245.3655,
        "meta_ephemeris_type": 0,
        "meta_classification_type": "U",
        "meta_norad_cat_id": 57402,
        "meta_element_set_no": 999,
        "meta_rev_at_epoch": 13148,
        "meta_bstar": 0.00031547,
        "meta_mean_motion_dot": 8.508e-05,
        "meta_mean_motion_ddot": 0,
        "tle_line1": "1 57402U 23101D   25335.84295497  .00008508  00000+0  31547-3 0  9994",
        "tle_line2": "2 57402  97.2927  26.0923 0008431 114.8462 245.3655 15.27819033131486"
      },
      "geometry": {
        "type": "Point",
        "coordinates": [
          19.920989033385133,
          42.29872773738614
        ]
      }
    },
    {
      "type": "Feature",
      "properties": {
        "norad_id": 57490,
        "name": "FENGYUN 3F",
        "group": "weather",
        "lat": 7.769866724308156,
        "lon": 43.636199581137376,
        "alt_km": 827.4473408701851,
        "timestamp": "2025-12-02T08:59:32.362653+00:00",
        "meta_object_name": "FENGYUN 3F",
        "meta_object_id": "2023-111A",
        "meta_epoch": "2025-12-02T03:52:54.221952",
        "meta_mean_motion": 14.198889,
        "meta_eccentricity": 7.08e-05,
        "meta_inclination": 98.7097,
        "meta_ra_of_asc_node": 44.6252,
        "meta_arg_of_pericenter": 84.0509,
        "meta_mean_anomaly": 276.0748,
        "meta_ephemeris_type": 0,
        "meta_classification_type": "U",
        "meta_norad_cat_id": 57490,
        "meta_element_set_no": 999,
        "meta_rev_at_epoch": 12090,
        "meta_bstar": 7.0161e-05,
        "meta_mean_motion_dot": 1.05e-06,
        "meta_mean_motion_ddot": 0,
        "tle_line1": "1 57490U 23111A   25336.16173868  .00000105  00000+0  70161-4 0  9996",
        "tle_line2": "2 57490  98.7097  44.6252 0000708  84.0509 276.0748 14.19888900120905"
      },
      "geometry": {
        "type": "Point",
        "coordinates": [
          43.636199581137376,
          7.769866724308156
        ]
      }
    },
    {
      "type": "Feature",
      "properties": {
        "norad_id": 58584,
        "name": "ARKTIKA-M 2",
        "group": "weather",
        "lat": 17.563266963319315,
        "lon": -174.7823741022931,
        "alt_km": 12437.072706306179,
        "timestamp": "2025-12-02T08:59:32.362664+00:00",
        "meta_object_name": "ARKTIKA-M 2",
        "meta_object_id": "2023-198A",
        "meta_epoch": "2025-12-01T08:43:04.634112",
        "meta_mean_motion": 2.00605427,
        "meta_eccentricity": 0.6864029,
        "meta_inclination": 63.2218,
        "meta_ra_of_asc_node": 176.1298,
        "meta_arg_of_pericenter": 268.1507,
        "meta_mean_anomaly": 18.8441,
        "meta_ephemeris_type": 0,
        "meta_classification_type": "U",
        "meta_norad_cat_id": 58584,
        "meta_element_set_no": 999,
        "meta_rev_at_epoch": 1435,
        "meta_bstar": 0,
        "meta_mean_motion_dot": 2.37e-06,
        "meta_mean_motion_ddot": 0,
        "tle_line1": "1 58584U 23198A   25335.36324808  .00000237  00000+0  00000+0 0  9995",
        "tle_line2": "2 58584  63.2218 176.1298 6864029 268.1507  18.8441  2.00605427 14357"
      },
      "geometry": {
        "type": "Point",
        "coordinates": [
          -174.7823741022931,
          17.563266963319315
        ]
      }
    },
    {
      "type": "Feature",
      "properties": {
        "norad_id": 58645,
        "name": "TIANMU-1 11",
        "group": "weather",
        "lat": -9.38315640516538,
        "lon": -2.5937866361722985,
        "alt_km": 490.62369312807186,
        "timestamp": "2025-12-02T08:59:32.362676+00:00",
        "meta_object_name": "TIANMU-1 11",
        "meta_object_id": "2023-205A",
        "meta_epoch": "2025-12-01T20:25:49.431648",
        "meta_mean_motion": 15.24389586,
        "meta_eccentricity": 0.0009033,
        "meta_inclination": 97.3619,
        "meta_ra_of_asc_node": 355.6678,
        "meta_arg_of_pericenter": 352.7112,
        "meta_mean_anomaly": 7.3993,
        "meta_ephemeris_type": 0,
        "meta_classification_type": "U",
        "meta_norad_cat_id": 58645,
        "meta_element_set_no": 999,
        "meta_rev_at_epoch": 10743,
        "meta_bstar": 0.00025582,
        "meta_mean_motion_dot": 6.204e-05,
        "meta_mean_motion_ddot": 0,
        "tle_line1": "1 58645U 23205A   25335.85126657  .00006204  00000+0  25582-3 0  9994",
        "tle_line2": "2 58645  97.3619 355.6678 0009033 352.7112   7.3993 15.24389586107438"
      },
      "geometry": {
        "type": "Point",
        "coordinates": [
          -2.5937866361722985,
          -9.38315640516538
        ]
      }
    },
    {
      "type": "Feature",
      "properties": {
        "norad_id": 58646,
        "name": "TIANMU-1 12",
        "group": "weather",
        "lat": -26.459660199220945,
        "lon": 172.30206947843544,
        "alt_km": 501.68038924372104,
        "timestamp": "2025-12-02T08:59:32.362687+00:00",
        "meta_object_name": "TIANMU-1 12",
        "meta_object_id": "2023-205B",
        "meta_epoch": "2025-12-01T21:03:35.665632",
        "meta_mean_motion": 15.24302022,
        "meta_eccentricity": 0.0006813,
        "meta_inclination": 97.3606,
        "meta_ra_of_asc_node": 355.5026,
        "meta_arg_of_pericenter": 338.59,
        "meta_mean_anomaly": 21.5052,
        "meta_ephemeris_type": 0,
        "meta_classification_type": "U",
        "meta_norad_cat_id": 58646,
        "meta_element_set_no": 999,
        "meta_rev_at_epoch": 10742,
        "meta_bstar": 0.0003005,
        "meta_mean_motion_dot": 7.279e-05,
        "meta_mean_motion_ddot": 0,
        "tle_line1": "1 58646U 23205B   25335.87749613  .00007279  00000+0  30050-3 0  9999",
        "tle_line2": "2 58646  97.3606 355.5026 0006813 338.5900  21.5052 15.24302022107424"
      },
      "geometry": {
        "type": "Point",
        "coordinates": [
          172.30206947843544,
          -26.459660199220945
        ]
      }
    }
  ]
}